GLOBALSTAR M001         
1 25162U 98008A   24337.86414791 -.00000029  00000+0  51624-3 0  9992
2 25162  52.0005 184.6358 0001516 148.1279 224.9052 12.38203059219391
GLOBALSTAR M004         
1 25163U 98008B   24337.65928678 -.00000051  00000+0  28941-3 0  9995
2 25163  52.0009 293.7054 0002514 210.9834 320.3351 12.63380530236845
GLOBALSTAR M002         
1 25164U 98008C   24337.78208945 -.00000058  00000+0  35855-3 0  9997
2 25164  52.0045  12.6561 0001576 147.1585 212.9333 11.61506183161246
GLOBALSTAR M003         
1 25165U 98008D   24337.79447378  .00000017  00000+0  11308-2 0  9994
2 25165  51.9993 352.4375 0007894 257.1213 273.5217 12.12057102209408
GLOBALSTAR M014         
1 25306U 98023A   24337.88971616 -.00000044  00000+0  63552-3 0  9995
2 25306  51.9850 299.7391 0001376   9.5273  27.5721 11.65475653168281
GLOBALSTAR M006         
1 25307U 98023B   24337.81051256 -.00000074  00000+0  43890-4 0  9995
2 25307  51.9966 345.0722 0003636 109.3456  61.6883 11.58169871194074
GLOBALSTAR M015         
1 25308U 98023C   24337.57959510 -.00000047  00000+0  59730-3 0  9998
2 25308  51.9828  75.1053 0013263  88.7755 284.8532 11.48855521171482
GLOBALSTAR M008         
1 25309U 98023D   24337.92165189 -.00000034  00000+0  48491-3 0  9997
2 25309  51.9990  47.0730 0003119 123.9455  47.6692 12.36057562213577
